STARLINK-30442          
1 57868U 23144E   25355.35545187  .00001519  00000+0  12747-3 0  9995
2 57868  43.0024 353.3819 0000703 273.0581  87.0181 15.02541253125783
STARLINK-30441          
1 57869U 23144F   25355.03638535 -.00000929  00000+0 -53679-4 0  9997
2 57869  43.0029 355.2819 0000993 303.9620  56.1127 15.02546241125732
STARLINK-30460          
1 57870U 23144G   25355.35212928 -.00000198  00000+0  40372-6 0  9993
2 57870  43.0047 353.4012 0001279 274.9528  85.1168 15.02535420125836
STARLINK-30444          
1 57871U 23144H   25355.27899021  .00001170  00000+0  10170-3 0  9990
2 57871  43.0040 353.7106 0001288 276.9780  83.0916 15.02537814125544
STARLINK-30446          
1 57872U 23144J   25355.30579771  .00001725  00000+0  14274-3 0  9997
2 57872  43.0050 340.2680 0001257 270.8146  89.2552 15.02537206125706
STARLINK-30445          
1 57873U 23144K   25355.34879945  .00000414  00000+0  45700-4 0  9991
2 57873  43.0038 353.3798 0001102 270.9884  89.0832 15.02534683125780
STARLINK-30447          
1 57874U 23144L   25355.31611396  .00000628  00000+0  61575-4 0  9998
2 57874  43.0050 327.8570 0001282 277.9401  82.1296 15.02537502126119
STARLINK-30434          
1 57875U 23144M   25355.33881138 -.00000145  00000+0  43434-5 0  9994
2 57875  43.0030 353.2994 0001333 277.9726  82.0965 15.02534420125834
STARLINK-30429          
1 57876U 23144N   25355.26900355 -.00000225  00000+0 -15931-5 0  9991
2 57876  43.0045 353.6360 0001118 275.1752  84.8963 15.02532907125816
STARLINK-30284          
1 57877U 23144P   25355.59226822  .00001618  00000+0  13477-3 0  9994
2 57877  43.0042 313.5177 0001227 264.2926  95.7776 15.02545970126300
STARLINK-30433          
1 57878U 23144Q   25354.73384974  .00000079  00000+0  20943-4 0  9990
2 57878  43.0034 356.5010 0001092 271.4051  88.6666 15.02535818125739
STARLINK-30358          
1 57879U 23144R   25355.06401586  .00000975  00000+0  87277-4 0  9995
2 57879  43.0054 354.6760 0001297 272.8334  87.2360 15.02534337125785
STARLINK-30436          
1 57880U 23144S   25355.38864054 -.00000495  00000+0 -21606-4 0  9998
2 57880  43.0028 352.8119 0000934 242.6925 117.3822 15.02530970125837
STARLINK-30339          
1 57882U 23144U   25355.05292611 -.00000788  00000+0 -43262-4 0  9995
2 57882  43.0047 354.5941 0001415 277.4310  82.6372 15.02536357125784
STARLINK-30282          
1 57883U 23144V   25355.31328595 -.00001861  00000+0 -12272-3 0  9995
2 57883  43.0079 353.1114 0002055 279.6330  80.4280 15.02522840125825
STARLINK-30340          
1 57884U 23144W   25355.37532095 -.00000141  00000+0  46457-5 0  9997
2 57884  43.0046 352.7040 0001123 266.4839  93.5875 15.02533884125832
