[{"OBJECT_NAME":"STARLINK-30442","OBJECT_ID":"2023-144E","EPOCH":"2025-12-21T08:31:51.041568","MEAN_MOTION":15.02541253,"ECCENTRICITY":7.032e-5,"INCLINATION":43.0024,"RA_OF_ASC_NODE":353.3819,"ARG_OF_PERICENTER":273.0581,"MEAN_ANOMALY":87.0181,"EPHEMERIS_TYPE":0,"CLASSIFICATION_TYPE":"U","NORAD_CAT_ID":57868,"ELEMENT_SET_NO":999,"REV_AT_EPOCH":12578,"BSTAR":0.00012746974,"MEAN_MOTION_DOT":1.519e-5,"MEAN_MOTION_DDOT":0},{"OBJECT_NAME":"STARLINK-30441","OBJECT_ID":"2023-144F","EPOCH":"2025-12-21T00:52:23.694240","MEAN_MOTION":15.02546241,"ECCENTRICITY":9.937e-5,"INCLINATION":43.0029,"RA_OF_ASC_NODE":355.2819,"ARG_OF_PERICENTER":303.962,"MEAN_ANOMALY":56.1127,"EPHEMERIS_TYPE":0,"CLASSIFICATION_TYPE":"U","NORAD_CAT_ID":57869,"ELEMENT_SET_NO":999,"REV_AT_EPOCH":12573,"BSTAR":-5.3678813e-5,"MEAN_MOTION_DOT":-9.29e-6,"MEAN_MOTION_DDOT":0},{"OBJECT_NAME":"STARLINK-30460","OBJECT_ID":"2023-144G","EPOCH":"2025-12-21T08:27:03.969792","MEAN_MOTION":15.0253542,"ECCENTRICITY":0.00012797,"INCLINATION":43.0047,"RA_OF_ASC_NODE":353.4012,"ARG_OF_PERICENTER":274.9528,"MEAN_ANOMALY":85.1168,"EPHEMERIS_TYPE":0,"CLASSIFICATION_TYPE":"U","NORAD_CAT_ID":57870,"ELEMENT_SET_NO":999,"REV_AT_EPOCH":12583,"BSTAR":4.03718e-7,"MEAN_MOTION_DOT":-1.98e-6,"MEAN_MOTION_DDOT":0},{"OBJECT_NAME":"STARLINK-30444","OBJECT_ID":"2023-144H","EPOCH":"2025-12-21T06:41:44.754144","MEAN_MOTION":15.02537814,"ECCENTRICITY":0.00012882,"INCLINATION":43.004,"RA_OF_ASC_NODE":353.7106,"ARG_OF_PERICENTER":276.978,"MEAN_ANOMALY":83.0916,"EPHEMERIS_TYPE":0,"CLASSIFICATION_TYPE":"U","NORAD_CAT_ID":57871,"ELEMENT_SET_NO":999,"REV_AT_EPOCH":12554,"BSTAR":0.00010170253,"MEAN_MOTION_DOT":1.17e-5,"MEAN_MOTION_DDOT":0},{"OBJECT_NAME":"STARLINK-30446","OBJECT_ID":"2023-144J","EPOCH":"2025-12-21T07:20:20.922144","MEAN_MOTION":15.02537206,"ECCENTRICITY":0.0001257,"INCLINATION":43.005,"RA_OF_ASC_NODE":340.268,"ARG_OF_PERICENTER":270.8146,"MEAN_ANOMALY":89.2552,"EPHEMERIS_TYPE":0,"CLASSIFICATION_TYPE":"U","NORAD_CAT_ID":57872,"ELEMENT_SET_NO":999,"REV_AT_EPOCH":12570,"BSTAR":0.00014274,"MEAN_MOTION_DOT":1.725e-5,"MEAN_MOTION_DDOT":0},{"OBJECT_NAME":"STARLINK-30445","OBJECT_ID":"2023-144K","EPOCH":"2025-12-21T08:22:16.272480","MEAN_MOTION":15.02534683,"ECCENTRICITY":0.00011027,"INCLINATION":43.0038,"RA_OF_ASC_NODE":353.3798,"ARG_OF_PERICENTER":270.9884,"MEAN_ANOMALY":89.0832,"EPHEMERIS_TYPE":0,"CLASSIFICATION_TYPE":"U","NORAD_CAT_ID":57873,"ELEMENT_SET_NO":999,"REV_AT_EPOCH":12578,"BSTAR":4.5700443e-5,"MEAN_MOTION_DOT":4.14e-6,"MEAN_MOTION_DDOT":0},{"OBJECT_NAME":"STARLINK-30447","OBJECT_ID":"2023-144L","EPOCH":"2025-12-21T07:35:12.246144","MEAN_MOTION":15.02537502,"ECCENTRICITY":0.00012823,"INCLINATION":43.005,"RA_OF_ASC_NODE":327.857,"ARG_OF_PERICENTER":277.9401,"MEAN_ANOMALY":82.1296,"EPHEMERIS_TYPE":0,"CLASSIFICATION_TYPE":"U","NORAD_CAT_ID":57874,"ELEMENT_SET_NO":999,"REV_AT_EPOCH":12611,"BSTAR":6.1575465e-5,"MEAN_MOTION_DOT":6.28e-6,"MEAN_MOTION_DDOT":0},{"OBJECT_NAME":"STARLINK-30434","OBJECT_ID":"2023-144M","EPOCH":"2025-12-21T08:07:53.303232","MEAN_MOTION":15.0253442,"ECCENTRICITY":0.00013338,"INCLINATION":43.003,"RA_OF_ASC_NODE":353.2994,"ARG_OF_PERICENTER":277.9726,"MEAN_ANOMALY":82.0965,"EPHEMERIS_TYPE":0,"CLASSIFICATION_TYPE":"U","NORAD_CAT_ID":57875,"ELEMENT_SET_NO":999,"REV_AT_EPOCH":12583,"BSTAR":4.343394e-6,"MEAN_MOTION_DOT":-1.45e-6,"MEAN_MOTION_DDOT":0},{"OBJECT_NAME":"STARLINK-30429","OBJECT_ID":"2023-144N","EPOCH":"2025-12-21T06:27:21.906720","MEAN_MOTION":15.02532907,"ECCENTRICITY":0.0001118,"INCLINATION":43.0045,"RA_OF_ASC_NODE":353.636,"ARG_OF_PERICENTER":275.1752,"MEAN_ANOMALY":84.8963,"EPHEMERIS_TYPE":0,"CLASSIFICATION_TYPE":"U","NORAD_CAT_ID":57876,"ELEMENT_SET_NO":999,"REV_AT_EPOCH":12581,"BSTAR":-1.5931e-6,"MEAN_MOTION_DOT":-2.25e-6,"MEAN_MOTION_DDOT":0},{"OBJECT_NAME":"STARLINK-30284","OBJECT_ID":"2023-144P","EPOCH":"2025-12-21T14:12:51.974208","MEAN_MOTION":15.0254597,"ECCENTRICITY":0.00012274,"INCLINATION":43.0042,"RA_OF_ASC_NODE":313.5177,"ARG_OF_PERICENTER":264.2926,"MEAN_ANOMALY":95.7776,"EPHEMERIS_TYPE":0,"CLASSIFICATION_TYPE":"U","NORAD_CAT_ID":57877,"ELEMENT_SET_NO":999,"REV_AT_EPOCH":12630,"BSTAR":0.00013476693,"MEAN_MOTION_DOT":1.618e-5,"MEAN_MOTION_DDOT":0},{"OBJECT_NAME":"STARLINK-30433","OBJECT_ID":"2023-144Q","EPOCH":"2025-12-20T17:36:44.617536","MEAN_MOTION":15.02535818,"ECCENTRICITY":0.00010923,"INCLINATION":43.0034,"RA_OF_ASC_NODE":356.501,"ARG_OF_PERICENTER":271.4051,"MEAN_ANOMALY":88.6666,"EPHEMERIS_TYPE":0,"CLASSIFICATION_TYPE":"U","NORAD_CAT_ID":57878,"ELEMENT_SET_NO":999,"REV_AT_EPOCH":12573,"BSTAR":2.0942876e-5,"MEAN_MOTION_DOT":7.9e-7,"MEAN_MOTION_DDOT":0},{"OBJECT_NAME":"STARLINK-30358","OBJECT_ID":"2023-144R","EPOCH":"2025-12-21T01:32:10.970304","MEAN_MOTION":15.02534337,"ECCENTRICITY":0.00012979,"INCLINATION":43.0054,"RA_OF_ASC_NODE":354.676,"ARG_OF_PERICENTER":272.8334,"MEAN_ANOMALY":87.236,"EPHEMERIS_TYPE":0,"CLASSIFICATION_TYPE":"U","NORAD_CAT_ID":57879,"ELEMENT_SET_NO":999,"REV_AT_EPOCH":12578,"BSTAR":8.7277283e-5,"MEAN_MOTION_DOT":9.75e-6,"MEAN_MOTION_DDOT":0},{"OBJECT_NAME":"STARLINK-30436","OBJECT_ID":"2023-144S","EPOCH":"2025-12-21T09:19:38.542656","MEAN_MOTION":15.0253097,"ECCENTRICITY":9.344e-5,"INCLINATION":43.0028,"RA_OF_ASC_NODE":352.8119,"ARG_OF_PERICENTER":242.6925,"MEAN_ANOMALY":117.3822,"EPHEMERIS_TYPE":0,"CLASSIFICATION_TYPE":"U","NORAD_CAT_ID":57880,"ELEMENT_SET_NO":999,"REV_AT_EPOCH":12583,"BSTAR":-2.1605977e-5,"MEAN_MOTION_DOT":-4.95e-6,"MEAN_MOTION_DDOT":0},{"OBJECT_NAME":"STARLINK-30339","OBJECT_ID":"2023-144U","EPOCH":"2025-12-21T01:16:12.815904","MEAN_MOTION":15.02536357,"ECCENTRICITY":0.0001415,"INCLINATION":43.0047,"RA_OF_ASC_NODE":354.5941,"ARG_OF_PERICENTER":277.431,"MEAN_ANOMALY":82.6372,"EPHEMERIS_TYPE":0,"CLASSIFICATION_TYPE":"U","NORAD_CAT_ID":57882,"ELEMENT_SET_NO":999,"REV_AT_EPOCH":12578,"BSTAR":-4.3261982e-5,"MEAN_MOTION_DOT":-7.88e-6,"MEAN_MOTION_DDOT":0},{"OBJECT_NAME":"STARLINK-30282","OBJECT_ID":"2023-144V","EPOCH":"2025-12-21T07:31:07.906080","MEAN_MOTION":15.0252284,"ECCENTRICITY":0.0002055,"INCLINATION":43.0079,"RA_OF_ASC_NODE":353.1114,"ARG_OF_PERICENTER":279.633,"MEAN_ANOMALY":80.428,"EPHEMERIS_TYPE":0,"CLASSIFICATION_TYPE":"U","NORAD_CAT_ID":57883,"ELEMENT_SET_NO":999,"REV_AT_EPOCH":12582,"BSTAR":-0.00012272,"MEAN_MOTION_DOT":-1.861e-5,"MEAN_MOTION_DDOT":0},{"OBJECT_NAME":"STARLINK-30340","OBJECT_ID":"2023-144W","EPOCH":"2025-12-21T09:00:27.730080","MEAN_MOTION":15.02533884,"ECCENTRICITY":0.00011239,"INCLINATION":43.0046,"RA_OF_ASC_NODE":352.704,"ARG_OF_PERICENTER":266.4839,"MEAN_ANOMALY":93.5875,"EPHEMERIS_TYPE":0,"CLASSIFICATION_TYPE":"U","NORAD_CAT_ID":57884,"ELEMENT_SET_NO":999,"REV_AT_EPOCH":12583,"BSTAR":4.645684e-6,"MEAN_MOTION_DOT":-1.41e-6,"MEAN_MOTION_DDOT":0}]
